GPS BIIR-2  (PRN 13)    
1 24876U 97035A   23165.33086777  .00000054  00000+0  00000+0 0  9996
2 24876  55.5737 141.5473 0068672  50.8488 309.7376  2.00563978189911
GPS BIIR-4  (PRN 20)    
1 26360U 00025A   23165.74514834 -.00000096  00000+0  00000+0 0  9991
2 26360  54.3618  63.9484 0041032 198.0779 187.7219  2.00576522169236
GPS BIIR-8  (PRN 16)    
1 27663U 03005A   23165.24560605 -.00000034  00000+0  00000+0 0  9993
2 27663  55.2869 258.6783 0131406  44.5665 321.8422  2.00570706149277
GPS BIIR-9  (PRN 21)    
1 27704U 03010A   23165.40182031 -.00000097  00000+0  00000+0 0  9995
2 27704  55.1091   8.6748 0248392 316.7918  19.6062  2.00571118148067
GPS BIIR-11 (PRN 19)    
1 28190U 04009A   23165.55127140 -.00000095  00000+0  00000+0 0  9998
2 28190  55.7560 319.7150 0092875 134.1800 249.6371  2.00569368140910
GPS BIIR-13 (PRN 02)    
1 28474U 04045A   23159.96021758 -.00000084  00000+0  00000+0 0  9997
2 28474  55.4341   9.1869 0175187 286.6858  72.2917  1.99885382136285
GPS BIIRM-1 (PRN 17)    
1 28874U 05038A   23165.55220394 -.00000094  00000+0  00000+0 0  9994
2 28874  55.8094 317.1642 0137092 279.2561 126.2496  2.00551560129804
GPS BIIRM-2 (PRN 31)    
1 29486U 06042A   23165.27057153  .00000093  00000+0  00000+0 0  9998
2 29486  54.6873 194.9089 0102031  29.9538  72.7502  2.00574729122359
GPS BIIRM-3 (PRN 12)    
1 29601U 06052A   23165.54730014 -.00000029  00000+0  00000+0 0  9992
2 29601  55.3049 257.6210 0085303  78.7239 282.2683  2.00573191121412
GPS BIIRM-4 (PRN 15)    
1 32260U 07047A   23165.35521113  .00000013  00000+0  00000+0 0  9991
2 32260  53.4354 125.5400 0147755  68.6535 292.8786  2.00555844114773
GPS BIIRM-5 (PRN 29)    
1 32384U 07062A   23164.69043687 -.00000090  00000+0  00000+0 0  9992
2 32384  55.9397 318.0074 0024389 143.0269 226.9770  2.00554276113463
GPS BIIRM-6 (PRN 07)    
1 32711U 08012A   23165.27042315  .00000093  00000+0  00000+0 0  9996
2 32711  54.4536 193.7591 0175803 234.9882 123.4156  2.00555177111713
GPS BIIRM-8 (PRN 05)    
1 35752U 09043A   23165.46996330 -.00000089  00000+0  00000+0 0  9991
2 35752  55.3638  70.9922 0057892  65.6561  94.3897  2.00562642101327
GPS BIIF-1  (PRN 25)    
1 36585U 10022A   23165.07642091 -.00000024  00000+0  00000+0 0  9993
2 36585  54.6007 252.9117 0108765  59.7052 292.4990  2.00557667 95549
GPS BIIF-2  (PRN 01)    
1 37753U 11036A   23165.43327777 -.00000094  00000+0  00000+0 0  9995
2 37753  56.7270  14.6398 0127057  55.1765 279.0102  2.00567843 87232
GPS BIIF-3  (PRN 24)    
1 38833U 12053A   23165.45212244  .00000095  00000+0  00000+0 0  9999
2 38833  53.5139 188.5385 0137532  50.7442 310.5304  2.00565913 77409
GPS BIIF-4  (PRN 27)    
1 39166U 13023A   23164.81386019 -.00000091  00000+0  00000+0 0  9995
2 39166  55.4264 313.4225 0114219  41.5756 319.2703  2.00564510 73838
GPS BIIF-5  (PRN 30)    
1 39533U 14008A   23165.30991455  .00000091  00000+0  00000+0 0  9997
2 39533  53.6016 194.0917 0066688 214.1730 145.4633  2.00573698 67648
GPS BIIF-6  (PRN 06)    
1 39741U 14026A   23165.09186192 -.00000094  00000+0  00000+0 0  9992
2 39741  56.6814  14.1760 0028922 314.0666  45.7408  2.00563122 66498
GPS BIIF-7  (PRN 09)    
1 40105U 14045A   23165.18257310  .00000034  00000+0  00000+0 0  9993
2 40105  54.7901 132.3549 0021830 113.6009 246.5980  2.00572051 64038
GPS BIIF-8  (PRN 03)    
1 40294U 14068A   23165.05829684 -.00000085  00000+0  00000+0 0  9999
2 40294  56.1070  73.6901 0047245  58.1602 302.3032  2.00566241 63165
GPS BIIF-9  (PRN 26)    
1 40534U 15013A   23165.19056649 -.00000017  00000+0  00000+0 0  9990
2 40534  53.4993 249.6980 0078146  25.0948 335.3302  2.00559631 59782
GPS BIIF-10 (PRN 08)    
1 40730U 15033A   23165.35148389 -.00000094  00000+0  00000+0 0  9996
2 40730  54.9160 312.0550 0084165  14.0367 346.1763  2.00559525 57951
GPS BIIF-11 (PRN 10)    
1 41019U 15062A   23165.40590279 -.00000086  00000+0  00000+0 0  9995
2 41019  56.0918  73.5251 0086728 221.7504 137.5911  2.00562312 55795
GPS BIIF-12 (PRN 32)    
1 41328U 16007A   23164.99687699  .00000039  00000+0  00000+0 0  9991
2 41328  54.9969 133.1209 0071316 234.9971 124.3035  2.00553827 53798
GPS BIII-1  (PRN 04)    
1 43873U 18109A   23165.34722302  .00000040  00000+0  00000+0 0  9996
2 43873  55.1739 135.6043 0024505 194.6565 310.1275  2.00565016 33034
GPS BIII-2  (PRN 18)    
1 44506U 19056A   23165.48016722 -.00000097  00000+0  00000+0 0  9992
2 44506  55.8039  14.6793 0033140 182.8166 318.6711  2.00564396 28039
GPS BIII-3  (PRN 23)    
1 45854U 20041A   23165.09805762 -.00000087  00000+0  00000+0 0  9991
2 45854  55.8128  71.9732 0032533 186.3257 342.6052  2.00565313 21992
GPS BIII-4  (PRN 14)    
1 46826U 20078A   23165.45976015 -.00000026  00000+0  00000+0 0  9994
2 46826  54.3505 255.3928 0033029 191.8357 213.7946  2.00562684 19471
GPS BIII-5  (PRN 11)    
1 48859U 21054A   23165.38414191 -.00000098  00000+0  00000+0 0  9990
2 48859  55.3189  16.5081 0009783 207.3849 323.9756  2.00553988 14716
GPS BIII-6  (PRN 28)    
1 55268U 23009A   23165.58280855  .00000096  00000+0  00000+0 0  9991
2 55268  55.0930 191.6194 0004349 102.1447 257.4731  2.00560943  3203
